{
  "type": "FeatureCollection",
  "features": [
    {
      "type": "Feature",
      "properties": {
        "norad_id": 27954,
        "name": "GALAXY 13 (HORIZONS-1)",
        "group": "intelsat",
        "lat": 0.20675548076852862,
        "lon": -107.43777941376325,
        "alt_km": 35776.64748545084,
        "timestamp": "2025-12-22T20:43:45.510254+00:00",
        "meta_object_name": "GALAXY 13 (HORIZONS-1)",
        "meta_object_id": "2003-044A",
        "meta_epoch": "2025-12-22T12:31:39.851328",
        "meta_mean_motion": 1.00270712,
        "meta_eccentricity": 0.00023594,
        "meta_inclination": 0.9619,
        "meta_ra_of_asc_node": 86.3432,
        "meta_arg_of_pericenter": 180.8351,
        "meta_mean_anomaly": 222.0353,
        "meta_ephemeris_type": 0,
        "meta_classification_type": "U",
        "meta_norad_cat_id": 27954,
        "meta_element_set_no": 999,
        "meta_rev_at_epoch": 4480,
        "meta_bstar": 0,
        "meta_mean_motion_dot": 1.54e-06,
        "meta_mean_motion_ddot": 0,
        "tle_line1": "1 27954U 03044A   25356.52198902  .00000154  00000+0  00000+0 0  9993",
        "tle_line2": "2 27954   0.9619  86.3432 0002359 180.8351 222.0353  1.00270712 44808"
      },
      "geometry": {
        "type": "Point",
        "coordinates": [
          -107.43777941376325,
          0.20675548076852862
        ]
      }
    },
    {
      "type": "Feature",
      "properties": {
        "norad_id": 28358,
        "name": "INTELSAT 10-02",
        "group": "intelsat",
        "lat": -0.0012242765114725627,
        "lon": 41.64601568899198,
        "alt_km": 35786.38470760996,
        "timestamp": "2025-12-22T20:43:45.510281+00:00",
        "meta_object_name": "INTELSAT 10-02",
        "meta_object_id": "2004-022A",
        "meta_epoch": "2025-12-22T01:10:32.793888",
        "meta_mean_motion": 1.00271641,
        "meta_eccentricity": 9.947e-05,
        "meta_inclination": 0.0191,
        "meta_ra_of_asc_node": 73.3386,
        "meta_arg_of_pericenter": 234.5255,
        "meta_mean_anomaly": 159.6716,
        "meta_ephemeris_type": 0,
        "meta_classification_type": "U",
        "meta_norad_cat_id": 28358,
        "meta_element_set_no": 999,
        "meta_rev_at_epoch": 7878,
        "meta_bstar": 0,
        "meta_mean_motion_dot": 1.1e-07,
        "meta_mean_motion_ddot": 0,
        "tle_line1": "1 28358U 04022A   25356.04899067  .00000011  00000+0  00000+0 0  9998",
        "tle_line2": "2 28358   0.0191  73.3386 0000994 234.5255 159.6716  1.00271641 78784"
      },
      "geometry": {
        "type": "Point",
        "coordinates": [
          41.64601568899198,
          -0.0012242765114725627
        ]
      }
    },
    {
      "type": "Feature",
      "properties": {
        "norad_id": 28626,
        "name": "XM-3 (RHYTHM)",
        "group": "intelsat",
        "lat": 0.1132484182007542,
        "lon": 108.78887005493092,
        "alt_km": 36163.714507135584,
        "timestamp": "2025-12-22T20:43:45.510295+00:00",
        "meta_object_name": "XM-3 (RHYTHM)",
        "meta_object_id": "2005-008A",
        "meta_epoch": "2025-12-22T13:29:07.582848",
        "meta_mean_motion": 0.98949861,
        "meta_eccentricity": 0.00020393,
        "meta_inclination": 0.1986,
        "meta_ra_of_asc_node": 82.0754,
        "meta_arg_of_pericenter": 276.7469,
        "meta_mean_anomaly": 2.4328,
        "meta_ephemeris_type": 0,
        "meta_classification_type": "U",
        "meta_norad_cat_id": 28626,
        "meta_element_set_no": 999,
        "meta_rev_at_epoch": 4084,
        "meta_bstar": 0,
        "meta_mean_motion_dot": 9.5e-07,
        "meta_mean_motion_ddot": 0,
        "tle_line1": "1 28626U 05008A   25356.56189332  .00000095  00000+0  00000+0 0  9997",
        "tle_line2": "2 28626   0.1986  82.0754 0002039 276.7469   2.4328  0.98949861 40840"
      },
      "geometry": {
        "type": "Point",
        "coordinates": [
          108.78887005493092,
          0.1132484182007542
        ]
      }
    },
    {
      "type": "Feature",
      "properties": {
        "norad_id": 28659,
        "name": "DIRECTV 8",
        "group": "intelsat",
        "lat": -0.042963841391098954,
        "lon": -76.44559837281616,
        "alt_km": 35773.77587589494,
        "timestamp": "2025-12-22T20:43:45.510308+00:00",
        "meta_object_name": "DIRECTV 8",
        "meta_object_id": "2005-019A",
        "meta_epoch": "2025-12-22T13:31:35.887584",
        "meta_mean_motion": 1.00271499,
        "meta_eccentricity": 0.00029249,
        "meta_inclination": 0.0178,
        "meta_ra_of_asc_node": 16.1545,
        "meta_arg_of_pericenter": 265.3877,
        "meta_mean_anomaly": 253.6824,
        "meta_ephemeris_type": 0,
        "meta_classification_type": "U",
        "meta_norad_cat_id": 28659,
        "meta_element_set_no": 999,
        "meta_rev_at_epoch": 7530,
        "meta_bstar": 0,
        "meta_mean_motion_dot": 2.3e-07,
        "meta_mean_motion_ddot": 0,
        "tle_line1": "1 28659U 05019A   25356.56360981  .00000023  00000+0  00000+0 0  9997",
        "tle_line2": "2 28659   0.0178  16.1545 0002924 265.3877 253.6824  1.00271499 75303"
      },
      "geometry": {
        "type": "Point",
        "coordinates": [
          -76.44559837281616,
          -0.042963841391098954
        ]
      }
    },
    {
      "type": "Feature",
      "properties": {
        "norad_id": 28702,
        "name": "GALAXY 28 (G-28)",
        "group": "intelsat",
        "lat": -2.2863354677882692,
        "lon": -46.105723249601226,
        "alt_km": 35777.019762176446,
        "timestamp": "2025-12-22T20:43:45.510319+00:00",
        "meta_object_name": "GALAXY 28 (G-28)",
        "meta_object_id": "2005-022A",
        "meta_epoch": "2025-12-20T00:49:30.482112",
        "meta_mean_motion": 1.00271047,
        "meta_eccentricity": 0.00029384,
        "meta_inclination": 2.8382,
        "meta_ra_of_asc_node": 81.1982,
        "meta_arg_of_pericenter": 194.0723,
        "meta_mean_anomaly": 97.2981,
        "meta_ephemeris_type": 0,
        "meta_classification_type": "U",
        "meta_norad_cat_id": 28702,
        "meta_element_set_no": 999,
        "meta_rev_at_epoch": 5017,
        "meta_bstar": 0,
        "meta_mean_motion_dot": -1.65e-06,
        "meta_mean_motion_ddot": 0,
        "tle_line1": "1 28702U 05022A   25354.03438058 -.00000165  00000+0  00000+0 0  9999",
        "tle_line2": "2 28702   2.8382  81.1982 0002938 194.0723  97.2981  1.00271047 50172"
      },
      "geometry": {
        "type": "Point",
        "coordinates": [
          -46.105723249601226,
          -2.2863354677882692
        ]
      }
    },
    {
      "type": "Feature",
      "properties": {
        "norad_id": 29236,
        "name": "GALAXY 16 (G-16)",
        "group": "intelsat",
        "lat": -0.013292407673988298,
        "lon": -56.401057908216224,
        "alt_km": 35777.17801829404,
        "timestamp": "2025-12-22T20:43:45.510332+00:00",
        "meta_object_name": "GALAXY 16 (G-16)",
        "meta_object_id": "2006-023A",
        "meta_epoch": "2025-12-22T11:53:30.894144",
        "meta_mean_motion": 1.00270809,
        "meta_eccentricity": 0.00025136,
        "meta_inclination": 0.0073,
        "meta_ra_of_asc_node": 85.1256,
        "meta_arg_of_pericenter": 188.1132,
        "meta_mean_anomaly": 257.43,
        "meta_ephemeris_type": 0,
        "meta_classification_type": "U",
        "meta_norad_cat_id": 29236,
        "meta_element_set_no": 999,
        "meta_rev_at_epoch": 7120,
        "meta_bstar": 0,
        "meta_mean_motion_dot": -1.05e-06,
        "meta_mean_motion_ddot": 0,
        "tle_line1": "1 29236U 06023A   25356.49549646 -.00000105  00000+0  00000+0 0  9996",
        "tle_line2": "2 29236   0.0073  85.1256 0002513 188.1132 257.4300  1.00270809 71204"
      },
      "geometry": {
        "type": "Point",
        "coordinates": [
          -56.401057908216224,
          -0.013292407673988298
        ]
      }
    },
    {
      "type": "Feature",
      "properties": {
        "norad_id": 29494,
        "name": "DIRECTV 9S",
        "group": "intelsat",
        "lat": -1.2408741904392024,
        "lon": -58.611026566526256,
        "alt_km": 35775.102499381035,
        "timestamp": "2025-12-22T20:43:45.510344+00:00",
        "meta_object_name": "DIRECTV 9S",
        "meta_object_id": "2006-043A",
        "meta_epoch": "2025-12-22T11:52:22.722816",
        "meta_mean_motion": 1.00272262,
        "meta_eccentricity": 0.00028762,
        "meta_inclination": 1.9638,
        "meta_ra_of_asc_node": 83.1101,
        "meta_arg_of_pericenter": 192.9933,
        "meta_mean_anomaly": 252.0827,
        "meta_ephemeris_type": 0,
        "meta_classification_type": "U",
        "meta_norad_cat_id": 29494,
        "meta_element_set_no": 999,
        "meta_rev_at_epoch": 4961,
        "meta_bstar": 0,
        "meta_mean_motion_dot": -9.3e-07,
        "meta_mean_motion_ddot": 0,
        "tle_line1": "1 29494U 06043A   25356.49470744 -.00000093  00000+0  00000+0 0  9992",
        "tle_line2": "2 29494   1.9638  83.1101 0002876 192.9933 252.0827  1.00272262 49618"
      },
      "geometry": {
        "type": "Point",
        "coordinates": [
          -58.611026566526256,
          -1.2408741904392024
        ]
      }
    }
  ]
}